start=new Date('2022-03-04T00:00:00.000Z').valueOf();
sats=[{"BSTAR":"0.00015148000000","FILE":"3343255","ECCENTRICITY":"0.00015760","MEAN_MOTION_DOT":"0.00001976","OBJECT_NAME":"STARLINK-1421","TLE_LINE2":"2 45709  53.0554 141.2649 0001576  58.0044 302.1098 15.06401581 98030","GP_ID":"197765110","PERIAPSIS":"546.117","SITE":"AFETR","MEAN_MOTION":"15.06401581","OBJECT_ID":"2020-035BE","ARG_OF_PERICENTER":"58.0044","SEMIMAJOR_AXIS":"6925.344","EPOCH":"2022-03-03T21:45:30.396384","NORAD_CAT_ID":"45709","CENTER_NAME":"EARTH","PERIOD":"95.592","TIME_SYSTEM":"UTC","ELEMENT_SET_NO":"999","RA_OF_ASC_NODE":"141.2649","OBJECT_TYPE":"PAYLOAD","RCS_SIZE":"LARGE","EPHEMERIS_TYPE":"0","CLASSIFICATION_TYPE":"U","INCLINATION":"53.0554","MEAN_MOTION_DDOT":"0.0000000000000","MEAN_ELEMENT_THEORY":"SGP4","REV_AT_EPOCH":"9803","TLE_LINE1":"1 45709U 20035BE  22062.90660181  .00001976  00000-0  15148-3 0  9993","COUNTRY_CODE":"US","DECAY_DATE":null,"LAUNCH_DATE":"2020-06-04","REF_FRAME":"TEME","MEAN_ANOMALY":"302.1098","APOAPSIS":"548.300"},{"OBJECT_ID":"2020-035BF","SEMIMAJOR_AXIS":"6925.304","ARG_OF_PERICENTER":"53.3330","MEAN_MOTION_DOT":"-0.00003702","ECCENTRICITY":"0.00017030","OBJECT_NAME":"STARLINK-1423","BSTAR":"-0.00022963000000","FILE":"3343255","MEAN_MOTION":"15.06414555","TLE_LINE2":"2 45710  53.0552 142.4659 0001703  53.3330 306.7816 15.06414555 98035","GP_ID":"197766362","SITE":"AFETR","PERIAPSIS":"545.990","EPHEMERIS_TYPE":"0","CLASSIFICATION_TYPE":"U","OBJECT_TYPE":"PAYLOAD","RCS_SIZE":"LARGE","TLE_LINE1":"1 45710U 20035BF  22062.63751202 -.00003702  00000-0 -22963-3 0  9994","DECAY_DATE":null,"REF_FRAME":"TEME","LAUNCH_DATE":"2020-06-04","COUNTRY_CODE":"US","MEAN_ANOMALY":"306.7816","APOAPSIS":"548.348","INCLINATION":"53.0552","MEAN_MOTION_DDOT":"0.0000000000000","REV_AT_EPOCH":"9803","MEAN_ELEMENT_THEORY":"SGP4","CENTER_NAME":"EARTH","PERIOD":"95.591","EPOCH":"2022-03-03T15:18:01.038528","NORAD_CAT_ID":"45710","ELEMENT_SET_NO":"999","RA_OF_ASC_NODE":"142.4659","TIME_SYSTEM":"UTC"},{"ARG_OF_PERICENTER":"56.1763","SEMIMAJOR_AXIS":"6925.322","OBJECT_ID":"2020-035BG","MEAN_MOTION":"15.06408679","PERIAPSIS":"546.030","SITE":"AFETR","TLE_LINE2":"2 45711  53.0529 142.2589 0001671  56.1763 303.9385 15.06408679 98035","GP_ID":"197766112","OBJECT_NAME":"STARLINK-1433","ECCENTRICITY":"0.00016710","MEAN_MOTION_DOT":"0.00006682","FILE":"3343255","BSTAR":"0.00046696000000","APOAPSIS":"548.344","MEAN_ANOMALY":"303.9385","REF_FRAME":"TEME","TLE_LINE1":"1 45711U 20035BG  22062.68543952  .00006682  00000-0  46696-3 0  9998","DECAY_DATE":null,"LAUNCH_DATE":"2020-06-04","COUNTRY_CODE":"US","MEAN_ELEMENT_THEORY":"SGP4","REV_AT_EPOCH":"9803","MEAN_MOTION_DDOT":"0.0000000000000","INCLINATION":"53.0529","CLASSIFICATION_TYPE":"U","EPHEMERIS_TYPE":"0","OBJECT_TYPE":"PAYLOAD","RCS_SIZE":"LARGE","RA_OF_ASC_NODE":"142.2589","ELEMENT_SET_NO":"999","TIME_SYSTEM":"UTC","PERIOD":"95.592","CENTER_NAME":"EARTH","NORAD_CAT_ID":"45711","EPOCH":"2022-03-03T16:27:01.974528"},{"APOAPSIS":"548.268","MEAN_ANOMALY":"284.8439","LAUNCH_DATE":"2020-06-04","TLE_LINE1":"1 45712U 20035BH  22062.61540509  .00003792  00000-0  27330-3 0  9990","DECAY_DATE":null,"REF_FRAME":"TEME","COUNTRY_CODE":"US","MEAN_ELEMENT_THEORY":"SGP4","REV_AT_EPOCH":"9803","MEAN_MOTION_DDOT":"0.0000000000000","INCLINATION":"53.0538","CLASSIFICATION_TYPE":"U","EPHEMERIS_TYPE":"0","OBJECT_TYPE":"PAYLOAD","RCS_SIZE":"LARGE","RA_OF_ASC_NODE":"142.5784","ELEMENT_SET_NO":"999","TIME_SYSTEM":"UTC","PERIOD":"95.592","CENTER_NAME":"EARTH","NORAD_CAT_ID":"45712","EPOCH":"2022-03-03T14:46:10.999776","ARG_OF_PERICENTER":"75.2722","SEMIMAJOR_AXIS":"6925.324","OBJECT_ID":"2020-035BH","MEAN_MOTION":"15.06407908","SITE":"AFETR","PERIAPSIS":"546.111","GP_ID":"197765361","TLE_LINE2":"2 45712  53.0538 142.5784 0001557  75.2722 284.8439 15.06407908 98037","OBJECT_NAME":"STARLINK-1434","MEAN_MOTION_DOT":"0.00003792","ECCENTRICITY":"0.00015570","FILE":"3343255","BSTAR":"0.00027330000000"},{"ELEMENT_SET_NO":"999","RA_OF_ASC_NODE":"161.8823","TIME_SYSTEM":"UTC","CENTER_NAME":"EARTH","PERIOD":"95.592","NORAD_CAT_ID":"45713","EPOCH":"2022-03-03T18:26:26.565792","MEAN_ANOMALY":"297.0210","COUNTRY_CODE":"US","TLE_LINE1":"1 45713U 20035BJ  22062.76836303  .00001491  00000-0  11893-3 0  9998","DECAY_DATE":null,"LAUNCH_DATE":"2020-06-04","REF_FRAME":"TEME","APOAPSIS":"548.270","MEAN_MOTION_DDOT":"0.0000000000000","INCLINATION":"53.0533","REV_AT_EPOCH":"9776","MEAN_ELEMENT_THEORY":"SGP4","EPHEMERIS_TYPE":"0","CLASSIFICATION_TYPE":"U","OBJECT_TYPE":"PAYLOAD","RCS_SIZE":"LARGE","MEAN_MOTION":"15.06402901","TLE_LINE2":"2 45713  53.0533 161.8823 0001538  63.0936 297.0210 15.06402901 97762","GP_ID":"197765611","PERIAPSIS":"546.140","SITE":"AFETR","MEAN_MOTION_DOT":"0.00001491","ECCENTRICITY":"0.00015380","OBJECT_NAME":"STARLINK-1436","FILE":"3343255","BSTAR":"0.00011893000000","OBJECT_ID":"2020-035BJ","ARG_OF_PERICENTER":"63.0936","SEMIMAJOR_AXIS":"6925.340"},{"EPOCH":"2022-03-03T15:02:05.965152","NORAD_CAT_ID":"45714","PERIOD":"95.592","CENTER_NAME":"EARTH","TIME_SYSTEM":"UTC","RA_OF_ASC_NODE":"142.5254","ELEMENT_SET_NO":"999","RCS_SIZE":"LARGE","OBJECT_TYPE":"PAYLOAD","CLASSIFICATION_TYPE":"U","EPHEMERIS_TYPE":"0","REV_AT_EPOCH":"9803","MEAN_ELEMENT_THEORY":"SGP4","INCLINATION":"53.0534","MEAN_MOTION_DDOT":"0.0000000000000","APOAPSIS":"548.253","DECAY_DATE":null,"TLE_LINE1":"1 45714U 20035BK  22062.62645793  .00000015  00000-0  19929-4 0  9995","LAUNCH_DATE":"2020-06-04","REF_FRAME":"TEME","COUNTRY_CODE":"US","MEAN_ANOMALY":"294.9152","BSTAR":"0.00001992900000","FILE":"3343255","OBJECT_NAME":"STARLINK-1437","ECCENTRICITY":"0.00015380","MEAN_MOTION_DOT":"0.00000015","SITE":"AFETR","PERIAPSIS":"546.123","TLE_LINE2":"2 45714  53.0534 142.5254 0001538  65.1996 294.9152 15.06408416 98036","GP_ID":"197765862","MEAN_MOTION":"15.06408416","SEMIMAJOR_AXIS":"6925.323","ARG_OF_PERICENTER":"65.1996","OBJECT_ID":"2020-035BK"},{"EPOCH":"2022-03-03T21:33:39.330432","NORAD_CAT_ID":"45716","CENTER_NAME":"EARTH","PERIOD":"90.573","TIME_SYSTEM":"UTC","ELEMENT_SET_NO":"999","RA_OF_ASC_NODE":"290.9060","RCS_SIZE":"LARGE","OBJECT_TYPE":"PAYLOAD","EPHEMERIS_TYPE":"0","CLASSIFICATION_TYPE":"U","INCLINATION":"52.9934","MEAN_MOTION_DDOT":"0.0000000000000","REV_AT_EPOCH":"10099","MEAN_ELEMENT_THEORY":"SGP4","TLE_LINE1":"1 45716U 20035BM  22062.89837188  .00124048  00000-0  40363-3 0  9995","DECAY_DATE":null,"COUNTRY_CODE":"US","LAUNCH_DATE":"2020-06-04","REF_FRAME":"TEME","MEAN_ANOMALY":"279.7780","APOAPSIS":"303.866","BSTAR":"0.00040363000000","FILE":"3343255","MEAN_MOTION_DOT":"0.00124048","ECCENTRICITY":"0.00018430","OBJECT_NAME":"STARLINK-1439","TLE_LINE2":"2 45716  52.9934 290.9060 0001843  80.3453 279.7780 15.89875242100992","GP_ID":"197766613","PERIAPSIS":"301.403","SITE":"AFETR","MEAN_MOTION":"15.89875242","OBJECT_ID":"2020-035BM","ARG_OF_PERICENTER":"80.3453","SEMIMAJOR_AXIS":"6680.769"},{"TLE_LINE2":"2 45730  53.0570 343.0610 0001891  58.1159 302.0013 15.06406137 95068","GP_ID":"197704445","SITE":"AFETR","PERIAPSIS":"545.885","MEAN_MOTION":"15.06406137","FILE":"3342689","BSTAR":"0.00015873000000","MEAN_MOTION_DOT":"0.00002084","ECCENTRICITY":"0.00018910","OBJECT_NAME":"STARLINK-1461","OBJECT_ID":"2020-038A","SEMIMAJOR_AXIS":"6925.330","ARG_OF_PERICENTER":"58.1159","TIME_SYSTEM":"UTC","ELEMENT_SET_NO":"999","RA_OF_ASC_NODE":"343.0610","NORAD_CAT_ID":"45730","EPOCH":"2022-03-03T12:06:57.221280","CENTER_NAME":"EARTH","PERIOD":"95.592","MEAN_MOTION_DDOT":"0.0000000000000","INCLINATION":"53.0570","REV_AT_EPOCH":"9506","MEAN_ELEMENT_THEORY":"SGP4","MEAN_ANOMALY":"302.0013","TLE_LINE1":"1 45730U 20038A   22062.50482895  .00002084  00000-0  15873-3 0  9996","DECAY_DATE":null,"LAUNCH_DATE":"2020-06-13","REF_FRAME":"TEME","COUNTRY_CODE":"US","APOAPSIS":"548.504","OBJECT_TYPE":"PAYLOAD","RCS_SIZE":"LARGE","EPHEMERIS_TYPE":"0","CLASSIFICATION_TYPE":"U"},{"FILE":"3342689","BSTAR":"0.00003538200000","OBJECT_NAME":"STARLINK-1465","ECCENTRICITY":"0.00015070","MEAN_MOTION_DOT":"0.00000246","PERIAPSIS":"546.154","SITE":"AFETR","TLE_LINE2":"2 45731  53.0559 344.4936 0001507  69.9561 290.1590 15.06405085 95005","GP_ID":"197704695","MEAN_MOTION":"15.06405085","ARG_OF_PERICENTER":"69.9561","SEMIMAJOR_AXIS":"6925.333","OBJECT_ID":"2020-038B","NORAD_CAT_ID":"45731","EPOCH":"2022-03-03T04:30:28.878336","PERIOD":"95.592","CENTER_NAME":"EARTH","TIME_SYSTEM":"UTC","RA_OF_ASC_NODE":"344.4936","ELEMENT_SET_NO":"999","OBJECT_TYPE":"PAYLOAD","RCS_SIZE":"LARGE","CLASSIFICATION_TYPE":"U","EPHEMERIS_TYPE":"0","REV_AT_EPOCH":"9500","MEAN_ELEMENT_THEORY":"SGP4","MEAN_MOTION_DDOT":"0.0000000000000","INCLINATION":"53.0559","APOAPSIS":"548.242","MEAN_ANOMALY":"290.1590","DECAY_DATE":null,"TLE_LINE1":"1 45731U 20038B   22062.18783424  .00000246  00000-0  35382-4 0  9999","LAUNCH_DATE":"2020-06-13","COUNTRY_CODE":"US","REF_FRAME":"TEME"},{"EPHEMERIS_TYPE":"0","CLASSIFICATION_TYPE":"U","RCS_SIZE":"LARGE","OBJECT_TYPE":"PAYLOAD","MEAN_ANOMALY":"280.0890","TLE_LINE1":"1 45732U 20038C   22062.77389313 -.00001729  00000-0 -97150-4 0  9994","DECAY_DATE":null,"LAUNCH_DATE":"2020-06-13","COUNTRY_CODE":"US","REF_FRAME":"TEME","APOAPSIS":"548.537","MEAN_MOTION_DDOT":"0.0000000000000","INCLINATION":"53.0545","REV_AT_EPOCH":"9509","MEAN_ELEMENT_THEORY":"SGP4","CENTER_NAME":"EARTH","PERIOD":"95.591","NORAD_CAT_ID":"45732","EPOCH":"2022-03-03T18:34:24.366432","ELEMENT_SET_NO":"999","RA_OF_ASC_NODE":"341.8539","TIME_SYSTEM":"UTC","OBJECT_ID":"2020-038C","ARG_OF_PERICENTER":"80.0321","SEMIMAJOR_AXIS":"6925.309","MEAN_MOTION_DOT":"-0.00001729","ECCENTRICITY":"0.00019680","OBJECT_NAME":"STARLINK-1466","FILE":"3343255","BSTAR":"-0.00009715000000","MEAN_MOTION":"15.06412879","GP_ID":"197765863","TLE_LINE2":"2 45732  53.0545 341.8539 0001968  80.0321 280.0890 15.06412879 95099","PERIAPSIS":"545.811","SITE":"AFETR"}];
